{"type":"FeatureCollection","features":[{"type":"Feature","geometry":{"type":"Polygon","coordinates":[[[-79.1804,-0.9257],[-79.1775,-0.9219],[-79.1668,-0.9135],[-79.1636,-0.9085],[-79.165,-0.9041],[-79.1628,-0.8854],[-79.1629,-0.8767],[-79.1558,-0.8663],[-79.1538,-0.8598],[-79.1371,-0.8608],[-79.1268,-0.8598],[-79.1173,-0.8622],[-79.1099,-0.8615],[-79.1041,-0.855],[-79.1021,-0.8448],[-79.0954,-0.8347],[-79.0884,-0.8332],[-79.0882,-0.8268],[-79.0837,-0.823],[-79.0776,-0.8132],[-79.0715,-0.8071],[-79.0647,-0.809],[-79.062,-0.8072],[-79.0516,-0.8117],[-79.0456,-0.8187],[-79.0293,-0.8216],[-79.0203,-0.8192],[-79.0223,-0.8127],[-79.022,-0.8045],[-79.0181,-0.7969],[-79.0211,-0.7866],[-79.0217,-0.7612],[-79.0224,-0.7576],[-79.0083,-0.7594],[-79.0012,-0.7516],[-78.9934,-0.7461],[-78.9937,-0.7411],[-79.0027,-0.7413],[-79.0125,-0.7319],[-79.0108,-0.7279],[-79.0131,-0.7194],[-79.0169,-0.7181],[-79.0138,-0.7007],[-79.0171,-0.6911],[-79.0147,-0.678],[-79.0162,-0.6698],[-79.0124,-0.6518],[-79.0159,-0.6422],[-79.0202,-0.6371],[-79.015,-0.6311],[-79.0162,-0.6271],[-79.0253,-0.6207],[-79.0252,-0.6142],[-79.0325,-0.6059],[-79.0352,-0.5989],[-79.0407,-0.596],[-79.0434,-0.5886],[-79.0679,-0.5799],[-79.0728,-0.5763],[-79.0721,-0.5712],[-79.0789,-0.5653],[-79.0833,-0.5667],[-79.091,-0.5798],[-79.0913,-0.5874],[-79.0949,-0.593],[-79.0971,-0.6036],[-79.112,-0.6242],[-79.1177,-0.6296],[-79.1206,-0.6381],[-79.1286,-0.649],[-79.1404,-0.7105],[-79.1432,-0.715],[-79.1512,-0.7205],[-79.1578,-0.7345],[-79.1602,-0.7429],[-79.1719,-0.7506],[-79.1736,-0.7582],[-79.1868,-0.7639],[-79.1875,-0.7661],[-79.1829,-0.7762],[-79.183,-0.7841],[-79.1867,-0.7991],[-79.1953,-0.8063],[-79.2053,-0.8053],[-79.2087,-0.8082],[-79.2185,-0.8094],[-79.2228,-0.8164],[-79.2229,-0.8224],[-79.2263,-0.8297],[-79.2261,-0.8361],[-79.2342,-0.8335],[-79.2392,-0.8506],[-79.2412,-0.8747],[-79.2435,-0.8786],[-79.249,-0.8784],[-79.2494,-0.8813],[-79.2649,-0.8805],[-79.2717,-0.8851],[-79.2795,-0.8869],[-79.2874,-0.8917],[-79.2872,-0.9118],[-79.2958,-0.9172],[-79.2991,-0.9286],[-79.3061,-0.9303],[-79.3068,-0.9489],[-79.3098,-0.9491],[-79.315,-0.9579],[-79.3179,-0.9815],[-79.3194,-0.9835],[-79.3203,-0.9979],[-79.3066,-0.9927],[-79.3007,-0.9922],[-79.2992,-0.9884],[-79.2916,-0.9885],[-79.2918,-1.0045],[-79.2784,-1.0026],[-79.272,-0.9983],[-79.2618,-0.9938],[-79.2576,-0.9963],[-79.2445,-0.9954],[-79.2249,-0.9927],[-79.2153,-0.9856],[-79.2053,-0.9853],[-79.1971,-0.9821],[-79.1744,-0.9852],[-79.154,-0.9954],[-79.1493,-0.9954],[-79.1461,-0.99],[-79.1393,-0.9859],[-79.1273,-0.9886],[-79.1227,-0.9765],[-79.1239,-0.9702],[-79.1291,-0.9648],[-79.137,-0.9656],[-79.1371,-0.9595],[-79.1454,-0.957],[-79.1445,-0.952],[-79.1486,-0.9479],[-79.1642,-0.9576],[-79.1761,-0.9495],[-79.1787,-0.9453],[-79.1862,-0.9445],[-79.1892,-0.9474],[-79.1974,-0.9433],[-79.2134,-0.9422],[-79.1951,-0.9381],[-79.1804,-0.9257]]]},"properties":{"poblacion":42216,"dpa_descan":"LA MANA","dpa_provin":"05","dpa_despro":"COTOPAXI","dpa_canton":"0502"}}]}