{"type":"FeatureCollection","features":[{"type":"Feature","geometry":{"type":"Polygon","coordinates":[[[-79.1884,-0.9462],[-79.1907,-0.9473],[-79.1934,-0.9457],[-79.1955,-0.9455],[-79.1974,-0.9433],[-79.2018,-0.9425],[-79.2076,-0.943],[-79.2147,-0.9419],[-79.2182,-0.9386],[-79.2217,-0.9379],[-79.2343,-0.9375],[-79.2393,-0.9364],[-79.2378,-0.942],[-79.2371,-0.9417],[-79.235,-0.9463],[-79.2338,-0.9472],[-79.2292,-0.9479],[-79.2279,-0.9499],[-79.2256,-0.9508],[-79.2263,-0.9546],[-79.2277,-0.957],[-79.2296,-0.9618],[-79.2294,-0.9644],[-79.2306,-0.9658],[-79.2307,-0.9693],[-79.233,-0.975],[-79.2346,-0.9769],[-79.2369,-0.9776],[-79.2401,-0.9845],[-79.245,-0.9877],[-79.2468,-0.9875],[-79.2496,-0.9914],[-79.2521,-0.9919],[-79.2525,-0.9935],[-79.2545,-0.9956],[-79.2522,-0.9967],[-79.2498,-0.9957],[-79.2476,-0.997],[-79.2413,-0.9947],[-79.2379,-0.9947],[-79.2323,-0.993],[-79.2293,-0.9934],[-79.2247,-0.9928],[-79.2219,-0.9913],[-79.2183,-0.9887],[-79.2159,-0.9859],[-79.2145,-0.9852],[-79.2122,-0.986],[-79.2063,-0.9858],[-79.2029,-0.9847],[-79.1997,-0.983],[-79.1961,-0.982],[-79.1917,-0.9817],[-79.1888,-0.9829],[-79.1806,-0.9847],[-79.1771,-0.9847],[-79.1743,-0.9855],[-79.1713,-0.988],[-79.1681,-0.9882],[-79.1651,-0.9903],[-79.1604,-0.9913],[-79.1578,-0.9926],[-79.1542,-0.9955],[-79.1496,-0.9956],[-79.1472,-0.9909],[-79.1442,-0.9906],[-79.1424,-0.9896],[-79.1394,-0.9861],[-79.1329,-0.9865],[-79.1283,-0.9878],[-79.1274,-0.9887],[-79.1228,-0.9766],[-79.1241,-0.9718],[-79.124,-0.9704],[-79.1261,-0.9691],[-79.1292,-0.965],[-79.1313,-0.9644],[-79.1331,-0.9656],[-79.1356,-0.9648],[-79.1372,-0.9657],[-79.1372,-0.9596],[-79.1419,-0.9597],[-79.1455,-0.9571],[-79.1446,-0.9522],[-79.1469,-0.9488],[-79.1487,-0.9481],[-79.1642,-0.9577],[-79.1696,-0.9549],[-79.1734,-0.9511],[-79.1762,-0.9496],[-79.1788,-0.9455],[-79.1822,-0.9447],[-79.1862,-0.9446],[-79.1884,-0.9462]]]},"properties":{"dpa_parroq":"0508256535","dpa_despar":"LA MANA","dpa_canton":"0502","dpa_descan":"LA MANA","dpa_provin":"05","dpa_despro":"COTOPAXI","estado":"URBANA","nombres_cne":"LA MANA"}},{"type":"Feature","geometry":{"type":"Polygon","coordinates":[[[-79.1803,-0.9271],[-79.1833,-0.8499],[-79.1894,-0.8371],[-79.1896,-0.8338],[-79.1906,-0.8312],[-79.1916,-0.8174],[-79.1868,-0.7992],[-79.1954,-0.8064],[-79.1997,-0.8059],[-79.2019,-0.8072],[-79.2037,-0.8059],[-79.2064,-0.806],[-79.2086,-0.8086],[-79.2132,-0.809],[-79.2161,-0.8103],[-79.2186,-0.8096],[-79.2231,-0.8171],[-79.2237,-0.8196],[-79.2234,-0.8226],[-79.2248,-0.8262],[-79.2231,-0.828],[-79.2262,-0.8318],[-79.224,-0.8326],[-79.2244,-0.8355],[-79.2259,-0.8364],[-79.2291,-0.836],[-79.2328,-0.8333],[-79.2343,-0.8337],[-79.2361,-0.8378],[-79.2359,-0.8398],[-79.2393,-0.8507],[-79.2385,-0.8526],[-79.2397,-0.8564],[-79.2399,-0.8619],[-79.2413,-0.8748],[-79.2428,-0.8763],[-79.2436,-0.8788],[-79.2491,-0.8785],[-79.2495,-0.8815],[-79.265,-0.8807],[-79.266,-0.8818],[-79.2718,-0.8853],[-79.2759,-0.8869],[-79.2796,-0.887],[-79.2805,-0.8888],[-79.2846,-0.8896],[-79.2871,-0.8908],[-79.2871,-0.9086],[-79.2885,-0.911],[-79.293,-0.9145],[-79.2959,-0.9148],[-79.2959,-0.9177],[-79.2973,-0.922],[-79.2989,-0.9229],[-79.2989,-0.9286],[-79.296,-0.9311],[-79.2936,-0.9313],[-79.2909,-0.9328],[-79.288,-0.9335],[-79.2853,-0.9356],[-79.2829,-0.9348],[-79.2777,-0.9352],[-79.2757,-0.9348],[-79.2735,-0.9376],[-79.2731,-0.9396],[-79.2706,-0.9399],[-79.2691,-0.9386],[-79.2648,-0.9367],[-79.2606,-0.9368],[-79.2564,-0.9353],[-79.2538,-0.9363],[-79.252,-0.9355],[-79.2483,-0.9364],[-79.2462,-0.9352],[-79.242,-0.9352],[-79.2393,-0.9364],[-79.2343,-0.9375],[-79.2217,-0.9379],[-79.2182,-0.9386],[-79.2147,-0.9419],[-79.2076,-0.943],[-79.2018,-0.9425],[-79.1974,-0.9433],[-79.1955,-0.9455],[-79.1934,-0.9457],[-79.1907,-0.9473],[-79.1884,-0.9462],[-79.1896,-0.9436],[-79.1914,-0.9326],[-79.1881,-0.9297],[-79.1839,-0.9276],[-79.1803,-0.9271]]]},"properties":{"dpa_parroq":"0508256880","dpa_despar":"EL CARMEN","dpa_canton":"0502","dpa_descan":"LA MANA","dpa_provin":"05","dpa_despro":"COTOPAXI","estado":"URBANA","nombres_cne":"EL CARMEN"}},{"type":"Feature","geometry":{"type":"Polygon","coordinates":[[[-79.2989,-0.9286],[-79.3014,-0.9279],[-79.3063,-0.9288],[-79.3063,-0.9488],[-79.3099,-0.9493],[-79.3151,-0.9581],[-79.3154,-0.9617],[-79.3165,-0.9634],[-79.3163,-0.9689],[-79.3174,-0.974],[-79.3172,-0.9765],[-79.3179,-0.9816],[-79.3195,-0.9837],[-79.3202,-0.9973],[-79.3141,-0.996],[-79.3067,-0.9929],[-79.3018,-0.9929],[-79.3008,-0.9923],[-79.2993,-0.9885],[-79.2953,-0.9883],[-79.2933,-0.9876],[-79.2933,-1.0058],[-79.2912,-1.0041],[-79.2857,-1.0028],[-79.2847,-1.0032],[-79.2785,-1.0028],[-79.2732,-1],[-79.2711,-0.9981],[-79.2661,-0.9964],[-79.2623,-0.9941],[-79.2573,-0.9964],[-79.2545,-0.9956],[-79.2525,-0.9935],[-79.2521,-0.9919],[-79.2496,-0.9914],[-79.2468,-0.9875],[-79.245,-0.9877],[-79.2401,-0.9845],[-79.2369,-0.9776],[-79.2346,-0.9769],[-79.233,-0.975],[-79.2307,-0.9693],[-79.2306,-0.9658],[-79.2294,-0.9644],[-79.2296,-0.9618],[-79.2277,-0.957],[-79.2263,-0.9546],[-79.2256,-0.9508],[-79.2279,-0.9499],[-79.2292,-0.9479],[-79.2338,-0.9472],[-79.235,-0.9463],[-79.2371,-0.9417],[-79.2378,-0.942],[-79.2393,-0.9364],[-79.242,-0.9352],[-79.2462,-0.9352],[-79.2483,-0.9364],[-79.252,-0.9355],[-79.2538,-0.9363],[-79.2564,-0.9353],[-79.2606,-0.9368],[-79.2648,-0.9367],[-79.2691,-0.9386],[-79.2706,-0.9399],[-79.2731,-0.9396],[-79.2735,-0.9376],[-79.2757,-0.9348],[-79.2777,-0.9352],[-79.2829,-0.9348],[-79.2853,-0.9356],[-79.288,-0.9335],[-79.2909,-0.9328],[-79.2936,-0.9313],[-79.296,-0.9311],[-79.2989,-0.9286]]]},"properties":{"dpa_parroq":"0508256895","dpa_despar":"EL TRIUNFO","dpa_canton":"0502","dpa_descan":"LA MANA","dpa_provin":"05","dpa_despro":"COTOPAXI","estado":"URBANA","nombres_cne":"EL TRIUNFO"}},{"type":"Feature","geometry":{"type":"Polygon","coordinates":[[[-79.0125,-0.7203],[-79.0213,-0.7159],[-79.0238,-0.705],[-79.0376,-0.7064],[-79.0426,-0.7102],[-79.0605,-0.7155],[-79.0712,-0.7154],[-79.0868,-0.7115],[-79.0976,-0.7161],[-79.1149,-0.7181],[-79.1415,-0.7368],[-79.1537,-0.7591],[-79.1539,-0.7662],[-79.16,-0.7774],[-79.1669,-0.7825],[-79.1808,-0.7737],[-79.1867,-0.7645],[-79.1868,-0.7992],[-79.1916,-0.8174],[-79.1906,-0.8312],[-79.1896,-0.8338],[-79.1894,-0.8371],[-79.1833,-0.8499],[-79.1803,-0.9271],[-79.1692,-0.9183],[-79.165,-0.9055],[-79.1629,-0.8768],[-79.1545,-0.8602],[-79.1175,-0.8621],[-79.1097,-0.8613],[-79.1037,-0.8544],[-79.1028,-0.8468],[-79.0965,-0.8358],[-79.0715,-0.8071],[-79.0516,-0.8108],[-79.0448,-0.8197],[-79.0294,-0.8226],[-79.0212,-0.8206],[-79.0217,-0.8032],[-79.0183,-0.7968],[-79.0213,-0.7883],[-79.0219,-0.7612],[-79.0229,-0.7578],[-79.0145,-0.7589],[-79.0134,-0.7598],[-79.0089,-0.7596],[-79.0023,-0.754],[-79.0013,-0.7514],[-78.997,-0.7509],[-78.9934,-0.7465],[-78.9934,-0.7412],[-78.9989,-0.7429],[-79.003,-0.7413],[-79.0042,-0.739],[-79.008,-0.7359],[-79.0114,-0.7344],[-79.0127,-0.7328],[-79.0124,-0.7292],[-79.0104,-0.727],[-79.0125,-0.7203]]]},"properties":{"dpa_parroq":"0508251500","dpa_despar":"GUASAGANDA","dpa_canton":"0502","dpa_descan":"LA MANA","dpa_provin":"05","dpa_despro":"COTOPAXI","estado":"RURAL","nombres_cne":"GUASAGANDA"}},{"type":"Feature","geometry":{"type":"Polygon","coordinates":[[[-79.0125,-0.7203],[-79.0136,-0.7002],[-79.016,-0.6897],[-79.0156,-0.6885],[-79.0169,-0.6817],[-79.0152,-0.6794],[-79.0148,-0.6766],[-79.0163,-0.672],[-79.0151,-0.664],[-79.0153,-0.6616],[-79.0123,-0.6563],[-79.0126,-0.6508],[-79.0141,-0.6478],[-79.0155,-0.6473],[-79.0159,-0.642],[-79.0169,-0.6406],[-79.0175,-0.6367],[-79.0172,-0.6342],[-79.0141,-0.6319],[-79.0167,-0.6263],[-79.0194,-0.6253],[-79.0254,-0.6211],[-79.0265,-0.6181],[-79.0249,-0.615],[-79.0265,-0.6135],[-79.0282,-0.6102],[-79.03,-0.6089],[-79.0326,-0.6058],[-79.0325,-0.6042],[-79.0351,-0.5989],[-79.0399,-0.5978],[-79.0423,-0.5912],[-79.0432,-0.5912],[-79.0457,-0.5875],[-79.0476,-0.5869],[-79.0504,-0.5875],[-79.0564,-0.5848],[-79.0581,-0.5855],[-79.0627,-0.5811],[-79.0675,-0.5804],[-79.073,-0.5769],[-79.0719,-0.5745],[-79.0723,-0.5713],[-79.0741,-0.5697],[-79.0739,-0.5681],[-79.0762,-0.5674],[-79.0787,-0.5655],[-79.0811,-0.5651],[-79.0835,-0.5668],[-79.0848,-0.5689],[-79.0841,-0.5702],[-79.088,-0.5736],[-79.0897,-0.5783],[-79.0929,-0.582],[-79.0914,-0.5876],[-79.0931,-0.5892],[-79.0948,-0.5924],[-79.0968,-0.5976],[-79.0976,-0.6014],[-79.097,-0.6036],[-79.1003,-0.6066],[-79.1026,-0.6113],[-79.1065,-0.6156],[-79.1081,-0.6184],[-79.111,-0.6198],[-79.1117,-0.624],[-79.1137,-0.627],[-79.1177,-0.6297],[-79.1192,-0.6349],[-79.1214,-0.6383],[-79.1219,-0.6417],[-79.1241,-0.6433],[-79.1289,-0.6494],[-79.1374,-0.6979],[-79.1386,-0.705],[-79.1392,-0.7062],[-79.1392,-0.7128],[-79.1442,-0.7167],[-79.1462,-0.7174],[-79.1468,-0.7193],[-79.1503,-0.7204],[-79.152,-0.7219],[-79.1587,-0.7383],[-79.162,-0.7399],[-79.1637,-0.7415],[-79.1648,-0.744],[-79.1667,-0.745],[-79.1665,-0.7466],[-79.1689,-0.7489],[-79.172,-0.7507],[-79.1721,-0.7537],[-79.1736,-0.7566],[-79.1736,-0.7583],[-79.1763,-0.7606],[-79.1802,-0.7625],[-79.1845,-0.7624],[-79.1867,-0.7645],[-79.1808,-0.7737],[-79.1669,-0.7825],[-79.16,-0.7774],[-79.1539,-0.7662],[-79.1537,-0.7591],[-79.1415,-0.7368],[-79.1149,-0.7181],[-79.0976,-0.7161],[-79.0868,-0.7115],[-79.0712,-0.7154],[-79.0605,-0.7155],[-79.0426,-0.7102],[-79.0376,-0.7064],[-79.0238,-0.705],[-79.0213,-0.7159],[-79.0125,-0.7203]]]},"properties":{"dpa_parroq":"0508252965","dpa_despar":"PUCAYACO","dpa_canton":"0502","dpa_descan":"LA MANA","dpa_provin":"05","dpa_despro":"COTOPAXI","estado":"RURAL","nombres_cne":"PUCAYACO"}}]}