{"type":"FeatureCollection","features":[{"type":"Feature","geometry":{"type":"Polygon","coordinates":[[[-78.425,-0.8828],[-78.4196,-0.8779],[-78.4124,-0.8755],[-78.4024,-0.8699],[-78.3948,-0.8686],[-78.3829,-0.8602],[-78.3988,-0.8421],[-78.3957,-0.8386],[-78.3832,-0.8379],[-78.383,-0.8329],[-78.3892,-0.8257],[-78.386,-0.8194],[-78.3809,-0.8166],[-78.3886,-0.81],[-78.3886,-0.804],[-78.3929,-0.7992],[-78.395,-0.7853],[-78.3889,-0.7795],[-78.3939,-0.7784],[-78.3975,-0.7726],[-78.3975,-0.7656],[-78.3918,-0.7584],[-78.3914,-0.7489],[-78.4017,-0.731],[-78.4132,-0.7225],[-78.4195,-0.7206],[-78.4219,-0.7169],[-78.4291,-0.7013],[-78.4352,-0.6842],[-78.4501,-0.6698],[-78.4532,-0.6685],[-78.4643,-0.6582],[-78.4714,-0.6577],[-78.4841,-0.6535],[-78.4873,-0.6492],[-78.4949,-0.6443],[-78.4994,-0.6393],[-78.4963,-0.6322],[-78.4976,-0.6284],[-78.511,-0.6081],[-78.5206,-0.6036],[-78.527,-0.6023],[-78.5359,-0.6043],[-78.544,-0.6017],[-78.5556,-0.6047],[-78.5639,-0.6088],[-78.5709,-0.6081],[-78.5801,-0.615],[-78.5876,-0.6093],[-78.6005,-0.6069],[-78.6102,-0.5999],[-78.6111,-0.5972],[-78.6177,-0.6018],[-78.6181,-0.606],[-78.6227,-0.6091],[-78.6379,-0.6185],[-78.643,-0.6265],[-78.6404,-0.6327],[-78.644,-0.6376],[-78.6525,-0.6388],[-78.6567,-0.6419],[-78.6593,-0.6482],[-78.6697,-0.6561],[-78.6906,-0.6614],[-78.6979,-0.6581],[-78.7158,-0.6629],[-78.7205,-0.6492],[-78.7272,-0.6442],[-78.7347,-0.6347],[-78.7341,-0.6295],[-78.739,-0.6215],[-78.735,-0.6075],[-78.736,-0.6036],[-78.7309,-0.5968],[-78.7281,-0.5873],[-78.73,-0.5814],[-78.7301,-0.568],[-78.7334,-0.5591],[-78.7442,-0.5568],[-78.7511,-0.5499],[-78.7652,-0.544],[-78.7692,-0.5452],[-78.7749,-0.5427],[-78.778,-0.5383],[-78.7859,-0.5397],[-78.7906,-0.5425],[-78.804,-0.5398],[-78.8082,-0.5359],[-78.8119,-0.5366],[-78.8224,-0.5285],[-78.8319,-0.5243],[-78.8342,-0.5209],[-78.8344,-0.5065],[-78.8332,-0.5003],[-78.8374,-0.4902],[-78.8391,-0.4769],[-78.8434,-0.4721],[-78.8533,-0.4677],[-78.8566,-0.4649],[-78.8594,-0.4525],[-78.8624,-0.4483],[-78.8639,-0.4407],[-78.8623,-0.4335],[-78.8681,-0.4295],[-78.8719,-0.4237],[-78.8711,-0.4172],[-78.8749,-0.4141],[-78.8906,-0.4144],[-78.8935,-0.4108],[-78.889,-0.4104],[-78.8902,-0.4046],[-78.8969,-0.3936],[-78.8992,-0.3864],[-78.9161,-0.3715],[-78.9155,-0.3667],[-78.9065,-0.3608],[-78.9142,-0.3532],[-78.9146,-0.3469],[-78.9192,-0.3399],[-78.9261,-0.337],[-78.933,-0.3366],[-78.9406,-0.3314],[-78.9375,-0.3442],[-78.9341,-0.3476],[-78.9335,-0.3602],[-78.947,-0.3603],[-78.9556,-0.3621],[-78.9621,-0.3696],[-78.9686,-0.382],[-78.9636,-0.3939],[-78.9645,-0.4009],[-78.977,-0.4101],[-78.9863,-0.4107],[-78.9908,-0.4148],[-79.0012,-0.4172],[-79.0081,-0.4155],[-79.015,-0.4226],[-79.0146,-0.4439],[-79.0168,-0.4519],[-79.0247,-0.462],[-79.0311,-0.4721],[-79.031,-0.4778],[-79.0297,-0.4792],[-79.0329,-0.4844],[-79.0386,-0.4877],[-79.0449,-0.4879],[-79.0483,-0.4956],[-79.0559,-0.5048],[-79.0604,-0.5142],[-79.0714,-0.5235],[-79.0807,-0.5278],[-79.0929,-0.5242],[-79.1011,-0.5247],[-79.1127,-0.542],[-79.102,-0.5507],[-79.0964,-0.5519],[-79.0882,-0.5569],[-79.0873,-0.563],[-79.0833,-0.5667],[-79.091,-0.5798],[-79.0913,-0.5874],[-79.0949,-0.593],[-79.0971,-0.6036],[-79.112,-0.6242],[-79.1177,-0.6296],[-79.1206,-0.6381],[-79.1286,-0.649],[-79.1404,-0.7105],[-79.1432,-0.715],[-79.1512,-0.7205],[-79.1578,-0.7345],[-79.1602,-0.7429],[-79.1719,-0.7506],[-79.1736,-0.7582],[-79.1868,-0.7639],[-79.1875,-0.7661],[-79.1829,-0.7762],[-79.183,-0.7841],[-79.1867,-0.7991],[-79.1953,-0.8063],[-79.2053,-0.8053],[-79.2087,-0.8082],[-79.2185,-0.8094],[-79.2228,-0.8164],[-79.2229,-0.8224],[-79.2263,-0.8297],[-79.2261,-0.8361],[-79.2342,-0.8335],[-79.2392,-0.8506],[-79.2412,-0.8747],[-79.2435,-0.8786],[-79.249,-0.8784],[-79.2494,-0.8813],[-79.2649,-0.8805],[-79.2717,-0.8851],[-79.2795,-0.8869],[-79.2874,-0.8917],[-79.2872,-0.9118],[-79.2958,-0.9172],[-79.2991,-0.9286],[-79.3061,-0.9303],[-79.3068,-0.9489],[-79.3098,-0.9491],[-79.315,-0.9579],[-79.3179,-0.9815],[-79.3194,-0.9835],[-79.3203,-0.9979],[-79.3066,-0.9927],[-79.3007,-0.9922],[-79.2992,-0.9884],[-79.2916,-0.9885],[-79.2918,-1.0045],[-79.2948,-1.0106],[-79.3023,-1.0159],[-79.3066,-1.0237],[-79.3079,-1.0324],[-79.3119,-1.0347],[-79.3117,-1.0456],[-79.3083,-1.0545],[-79.31,-1.0643],[-79.3149,-1.0676],[-79.3143,-1.0774],[-79.3203,-1.0797],[-79.3215,-1.0972],[-79.325,-1.1013],[-79.3277,-1.1155],[-79.3332,-1.1143],[-79.3314,-1.1203],[-79.3392,-1.1232],[-79.3358,-1.1264],[-79.3384,-1.1295],[-79.3362,-1.1385],[-79.3323,-1.1399],[-79.3335,-1.1494],[-79.3256,-1.162],[-79.3011,-1.1758],[-79.2953,-1.1864],[-79.2899,-1.2053],[-79.2802,-1.2063],[-79.2736,-1.2048],[-79.2672,-1.2093],[-79.2601,-1.2075],[-79.2532,-1.2009],[-79.2483,-1.2008],[-79.2383,-1.195],[-79.232,-1.187],[-79.2269,-1.1843],[-79.2205,-1.1746],[-79.2109,-1.1742],[-79.2081,-1.1712],[-79.1918,-1.1687],[-79.1793,-1.1687],[-79.1743,-1.1623],[-79.1664,-1.1602],[-79.1563,-1.162],[-79.1537,-1.1604],[-79.1446,-1.1552],[-79.1325,-1.1624],[-79.1233,-1.1529],[-79.1153,-1.1554],[-79.1101,-1.1539],[-79.1066,-1.1498],[-79.0995,-1.1509],[-79.0945,-1.1549],[-79.0885,-1.1557],[-79.0824,-1.1616],[-79.079,-1.1688],[-79.0748,-1.1707],[-79.0656,-1.1808],[-79.0604,-1.1815],[-79.0586,-1.1859],[-79.0479,-1.1885],[-79.0454,-1.1968],[-79.0348,-1.1973],[-79.0301,-1.2045],[-79.0133,-1.2135],[-79.0041,-1.2157],[-78.9891,-1.2174],[-78.9853,-1.2198],[-78.9832,-1.2156],[-78.9798,-1.2166],[-78.9738,-1.2117],[-78.9625,-1.2113],[-78.9587,-1.2161],[-78.9523,-1.2114],[-78.9467,-1.2107],[-78.9481,-1.2054],[-78.9436,-1.2022],[-78.9421,-1.1977],[-78.9367,-1.1944],[-78.9346,-1.1882],[-78.9243,-1.1827],[-78.9145,-1.1851],[-78.9087,-1.1899],[-78.8956,-1.192],[-78.8824,-1.1963],[-78.8764,-1.1968],[-78.8692,-1.192],[-78.8694,-1.1867],[-78.8659,-1.1864],[-78.8621,-1.1914],[-78.854,-1.1825],[-78.8393,-1.1783],[-78.8313,-1.1713],[-78.8277,-1.162],[-78.8236,-1.1556],[-78.8237,-1.1488],[-78.8202,-1.1452],[-78.7981,-1.1451],[-78.7895,-1.1433],[-78.7806,-1.1467],[-78.7718,-1.1401],[-78.7588,-1.1362],[-78.7545,-1.1373],[-78.748,-1.1329],[-78.7439,-1.1328],[-78.7322,-1.14],[-78.7259,-1.1472],[-78.719,-1.1493],[-78.7102,-1.1482],[-78.7049,-1.1505],[-78.6892,-1.151],[-78.6859,-1.1475],[-78.6741,-1.1454],[-78.6731,-1.15],[-78.6683,-1.1548],[-78.6653,-1.1541],[-78.6604,-1.1457],[-78.6521,-1.1384],[-78.6406,-1.1308],[-78.6327,-1.1308],[-78.6204,-1.1218],[-78.6162,-1.117],[-78.6153,-1.1121],[-78.6114,-1.1104],[-78.6073,-1.1152],[-78.5909,-1.1142],[-78.5899,-1.1195],[-78.5823,-1.1201],[-78.5799,-1.1252],[-78.5747,-1.1246],[-78.5694,-1.1271],[-78.5713,-1.1165],[-78.5658,-1.123],[-78.5683,-1.118],[-78.5665,-1.104],[-78.5704,-1.0972],[-78.5627,-1.084],[-78.5649,-1.0765],[-78.5681,-1.0743],[-78.5776,-1.075],[-78.572,-1.0655],[-78.5595,-1.059],[-78.5467,-1.0605],[-78.5236,-1.059],[-78.5207,-1.0705],[-78.5156,-1.0737],[-78.5163,-1.0787],[-78.5117,-1.0784],[-78.5098,-1.0844],[-78.5056,-1.0865],[-78.5024,-1.0938],[-78.4962,-1.0935],[-78.483,-1.0926],[-78.4753,-1.0878],[-78.4657,-1.0879],[-78.4589,-1.084],[-78.4564,-1.0793],[-78.4594,-1.0729],[-78.4558,-1.0718],[-78.4532,-1.065],[-78.4462,-1.061],[-78.4471,-1.0551],[-78.4451,-1.0473],[-78.4396,-1.0485],[-78.4349,-1.0465],[-78.4319,-1.0386],[-78.4225,-1.0294],[-78.4194,-1.0233],[-78.4153,-1.0242],[-78.4083,-1.0159],[-78.4075,-1.0016],[-78.4134,-0.9934],[-78.412,-0.9891],[-78.4047,-0.9896],[-78.4055,-0.9764],[-78.4015,-0.9594],[-78.4107,-0.9442],[-78.4102,-0.9353],[-78.414,-0.9269],[-78.4115,-0.9237],[-78.417,-0.9094],[-78.4271,-0.8897],[-78.425,-0.8828]]]},"properties":{"poblacion":409205,"dpa_despro":"COTOPAXI","dpa_provin":"05"}}]}